STARLINK-30105          
1 57433U 23105D   26068.28525767  .00000208  00000+0  17084-4 0  9990
2 57433  43.0064  33.1157 0001077 264.5620  95.5109 15.27578600148262
TEVEL2-8                
1 63239U 25052AF  26068.66815442  .00019130  00000+0  69304-3 0  9993
2 63239  97.4055 324.2923 0008031 124.9191 235.2804 15.28392908 54807
